[{"OBJECT_NAME":"ONEWEB-0593","OBJECT_ID":"2022-166T","EPOCH":"2025-10-03T01:02:22.938720","MEAN_MOTION":13.2182746,"ECCENTRICITY":0.00018294,"INCLINATION":87.9176,"RA_OF_ASC_NODE":295.2946,"ARG_OF_PERICENTER":87.5932,"MEAN_ANOMALY":272.5411,"EPHEMERIS_TYPE":0,"CLASSIFICATION_TYPE":"U","NORAD_CAT_ID":54659,"ELEMENT_SET_NO":999,"REV_AT_EPOCH":13757,"BSTAR":-0.00067447691,"MEAN_MOTION_DOT":-2.66e-6,"MEAN_MOTION_DDOT":0},{"OBJECT_NAME":"ONEWEB-0594","OBJECT_ID":"2022-166U","EPOCH":"2025-10-03T01:29:39.593184","MEAN_MOTION":13.21826323,"ECCENTRICITY":0.00019001,"INCLINATION":87.918,"RA_OF_ASC_NODE":295.3077,"ARG_OF_PERICENTER":94.4911,"MEAN_ANOMALY":265.644,"EPHEMERIS_TYPE":0,"CLASSIFICATION_TYPE":"U","NORAD_CAT_ID":54660,"ELEMENT_SET_NO":999,"REV_AT_EPOCH":13759,"BSTAR":0.00028172989,"MEAN_MOTION_DOT":1.29e-6,"MEAN_MOTION_DDOT":0},{"OBJECT_NAME":"ONEWEB-0595","OBJECT_ID":"2022-166V","EPOCH":"2025-10-03T00:57:51.515712","MEAN_MOTION":13.21825081,"ECCENTRICITY":0.00020231,"INCLINATION":87.918,"RA_OF_ASC_NODE":295.2868,"ARG_OF_PERICENTER":93.3705,"MEAN_ANOMALY":266.766,"EPHEMERIS_TYPE":0,"CLASSIFICATION_TYPE":"U","NORAD_CAT_ID":54661,"ELEMENT_SET_NO":999,"REV_AT_EPOCH":13756,"BSTAR":0.0001301858,"MEAN_MOTION_DOT":6.7e-7,"MEAN_MOTION_DDOT":0},{"OBJECT_NAME":"ONEWEB-0596","OBJECT_ID":"2022-166W","EPOCH":"2025-10-03T07:35:16.420992","MEAN_MOTION":13.21825589,"ECCENTRICITY":0.00019973,"INCLINATION":87.9181,"RA_OF_ASC_NODE":295.2476,"ARG_OF_PERICENTER":91.6365,"MEAN_ANOMALY":268.4997,"EPHEMERIS_TYPE":0,"CLASSIFICATION_TYPE":"U","NORAD_CAT_ID":54662,"ELEMENT_SET_NO":999,"REV_AT_EPOCH":13760,"BSTAR":0.00030314701,"MEAN_MOTION_DOT":1.38e-6,"MEAN_MOTION_DDOT":0},{"OBJECT_NAME":"ONEWEB-0597","OBJECT_ID":"2022-166X","EPOCH":"2025-10-03T01:41:00.940992","MEAN_MOTION":13.21824802,"ECCENTRICITY":0.00018648,"INCLINATION":87.9178,"RA_OF_ASC_NODE":295.3007,"ARG_OF_PERICENTER":87.9984,"MEAN_ANOMALY":272.1364,"EPHEMERIS_TYPE":0,"CLASSIFICATION_TYPE":"U","NORAD_CAT_ID":54663,"ELEMENT_SET_NO":999,"REV_AT_EPOCH":13757,"BSTAR":8.6392226e-5,"MEAN_MOTION_DOT":4.9e-7,"MEAN_MOTION_DDOT":0},{"OBJECT_NAME":"ONEWEB-0600","OBJECT_ID":"2022-166Y","EPOCH":"2025-10-03T01:16:02.034912","MEAN_MOTION":13.21825576,"ECCENTRICITY":0.00017805,"INCLINATION":87.9177,"RA_OF_ASC_NODE":295.2961,"ARG_OF_PERICENTER":89.1674,"MEAN_ANOMALY":270.9664,"EPHEMERIS_TYPE":0,"CLASSIFICATION_TYPE":"U","NORAD_CAT_ID":54664,"ELEMENT_SET_NO":999,"REV_AT_EPOCH":13754,"BSTAR":0.00030009447,"MEAN_MOTION_DOT":1.37e-6,"MEAN_MOTION_DDOT":0},{"OBJECT_NAME":"ONEWEB-0601","OBJECT_ID":"2022-166Z","EPOCH":"2025-10-03T01:04:39.670176","MEAN_MOTION":13.2182422,"ECCENTRICITY":0.00019328,"INCLINATION":87.9179,"RA_OF_ASC_NODE":295.315,"ARG_OF_PERICENTER":82.7511,"MEAN_ANOMALY":277.3843,"EPHEMERIS_TYPE":0,"CLASSIFICATION_TYPE":"U","NORAD_CAT_ID":54665,"ELEMENT_SET_NO":999,"REV_AT_EPOCH":13773,"BSTAR":5.5174308e-5,"MEAN_MOTION_DOT":3.6e-7,"MEAN_MOTION_DDOT":0},{"OBJECT_NAME":"ONEWEB-0602","OBJECT_ID":"2022-166AA","EPOCH":"2025-10-03T07:29:32.021952","MEAN_MOTION":13.21868684,"ECCENTRICITY":0.00014648,"INCLINATION":87.9183,"RA_OF_ASC_NODE":295.2644,"ARG_OF_PERICENTER":87.0511,"MEAN_ANOMALY":273.079,"EPHEMERIS_TYPE":0,"CLASSIFICATION_TYPE":"U","NORAD_CAT_ID":54666,"ELEMENT_SET_NO":999,"REV_AT_EPOCH":13761,"BSTAR":0.013528875,"MEAN_MOTION_DOT":5.607e-5,"MEAN_MOTION_DDOT":0},{"OBJECT_NAME":"ONEWEB-0603","OBJECT_ID":"2022-166AB","EPOCH":"2025-10-03T07:37:31.800288","MEAN_MOTION":13.21826859,"ECCENTRICITY":0.0001865,"INCLINATION":87.9186,"RA_OF_ASC_NODE":295.1976,"ARG_OF_PERICENTER":88.6514,"MEAN_ANOMALY":271.4834,"EPHEMERIS_TYPE":0,"CLASSIFICATION_TYPE":"U","NORAD_CAT_ID":54667,"ELEMENT_SET_NO":999,"REV_AT_EPOCH":13754,"BSTAR":0.00037259873,"MEAN_MOTION_DOT":1.67e-6,"MEAN_MOTION_DDOT":0},{"OBJECT_NAME":"ONEWEB-0604","OBJECT_ID":"2022-166AC","EPOCH":"2025-10-03T07:19:22.385280","MEAN_MOTION":13.21825955,"ECCENTRICITY":0.00017855,"INCLINATION":87.9181,"RA_OF_ASC_NODE":295.2247,"ARG_OF_PERICENTER":87.2954,"MEAN_ANOMALY":272.8384,"EPHEMERIS_TYPE":0,"CLASSIFICATION_TYPE":"U","NORAD_CAT_ID":54668,"ELEMENT_SET_NO":999,"REV_AT_EPOCH":13750,"BSTAR":0.00029642622,"MEAN_MOTION_DOT":1.35e-6,"MEAN_MOTION_DDOT":0},{"OBJECT_NAME":"ONEWEB-0605","OBJECT_ID":"2022-166AD","EPOCH":"2025-10-03T01:43:14.952576","MEAN_MOTION":13.21825766,"ECCENTRICITY":0.00022434,"INCLINATION":87.9177,"RA_OF_ASC_NODE":295.301,"ARG_OF_PERICENTER":76.6583,"MEAN_ANOMALY":283.4801,"EPHEMERIS_TYPE":0,"CLASSIFICATION_TYPE":"U","NORAD_CAT_ID":54669,"ELEMENT_SET_NO":999,"REV_AT_EPOCH":13754,"BSTAR":-0.00055181339,"MEAN_MOTION_DOT":-2.15e-6,"MEAN_MOTION_DDOT":0},{"OBJECT_NAME":"ONEWEB-0606","OBJECT_ID":"2022-166AE","EPOCH":"2025-10-03T07:42:04.959936","MEAN_MOTION":13.21826709,"ECCENTRICITY":0.00020048,"INCLINATION":87.918,"RA_OF_ASC_NODE":295.2618,"ARG_OF_PERICENTER":97.3876,"MEAN_ANOMALY":262.7486,"EPHEMERIS_TYPE":0,"CLASSIFICATION_TYPE":"U","NORAD_CAT_ID":54670,"ELEMENT_SET_NO":999,"REV_AT_EPOCH":13763,"BSTAR":0.00028735929,"MEAN_MOTION_DOT":1.32e-6,"MEAN_MOTION_DDOT":0},{"OBJECT_NAME":"ONEWEB-0607","OBJECT_ID":"2022-166AF","EPOCH":"2025-10-03T01:27:22.477248","MEAN_MOTION":13.21826814,"ECCENTRICITY":0.00018639,"INCLINATION":87.9178,"RA_OF_ASC_NODE":295.2777,"ARG_OF_PERICENTER":87.8872,"MEAN_ANOMALY":272.2476,"EPHEMERIS_TYPE":0,"CLASSIFICATION_TYPE":"U","NORAD_CAT_ID":54671,"ELEMENT_SET_NO":999,"REV_AT_EPOCH":13757,"BSTAR":0.00025861811,"MEAN_MOTION_DOT":1.2e-6,"MEAN_MOTION_DDOT":0},{"OBJECT_NAME":"ONEWEB-0608","OBJECT_ID":"2022-166AG","EPOCH":"2025-10-03T07:03:28.045440","MEAN_MOTION":13.218262,"ECCENTRICITY":0.00019464,"INCLINATION":87.9178,"RA_OF_ASC_NODE":295.2143,"ARG_OF_PERICENTER":76.1713,"MEAN_ANOMALY":283.9637,"EPHEMERIS_TYPE":0,"CLASSIFICATION_TYPE":"U","NORAD_CAT_ID":54672,"ELEMENT_SET_NO":999,"REV_AT_EPOCH":13761,"BSTAR":0.00022635281,"MEAN_MOTION_DOT":1.07e-6,"MEAN_MOTION_DDOT":0},{"OBJECT_NAME":"ONEWEB-0610","OBJECT_ID":"2022-166AH","EPOCH":"2025-10-03T01:09:12.835872","MEAN_MOTION":13.21826281,"ECCENTRICITY":0.00019839,"INCLINATION":87.918,"RA_OF_ASC_NODE":295.3014,"ARG_OF_PERICENTER":73.7515,"MEAN_ANOMALY":286.3837,"EPHEMERIS_TYPE":0,"CLASSIFICATION_TYPE":"U","NORAD_CAT_ID":54673,"ELEMENT_SET_NO":999,"REV_AT_EPOCH":13748,"BSTAR":1.9630759e-5,"MEAN_MOTION_DOT":2.1e-7,"MEAN_MOTION_DDOT":0},{"OBJECT_NAME":"ONEWEB-0611","OBJECT_ID":"2022-166AJ","EPOCH":"2025-10-03T01:00:07.288128","MEAN_MOTION":13.21824492,"ECCENTRICITY":0.00019063,"INCLINATION":87.918,"RA_OF_ASC_NODE":295.2985,"ARG_OF_PERICENTER":98.7879,"MEAN_ANOMALY":261.347,"EPHEMERIS_TYPE":0,"CLASSIFICATION_TYPE":"U","NORAD_CAT_ID":54674,"ELEMENT_SET_NO":999,"REV_AT_EPOCH":13747,"BSTAR":0.00010590197,"MEAN_MOTION_DOT":5.7e-7,"MEAN_MOTION_DDOT":0},{"OBJECT_NAME":"ONEWEB-0612","OBJECT_ID":"2022-166AK","EPOCH":"2025-10-03T01:18:18.453600","MEAN_MOTION":13.21825883,"ECCENTRICITY":0.00019015,"INCLINATION":87.9179,"RA_OF_ASC_NODE":295.2739,"ARG_OF_PERICENTER":87.03,"MEAN_ANOMALY":273.1051,"EPHEMERIS_TYPE":0,"CLASSIFICATION_TYPE":"U","NORAD_CAT_ID":54675,"ELEMENT_SET_NO":999,"REV_AT_EPOCH":13746,"BSTAR":9.7683577e-5,"MEAN_MOTION_DOT":5.3e-7,"MEAN_MOTION_DDOT":0}]
