ONEWEB-0593             
1 54659U 22166T   25276.04332105 -.00000266  00000+0 -67448-3 0  9993
2 54659  87.9176 295.2946 0001829  87.5932 272.5411 13.21827460137579
ONEWEB-0594             
1 54660U 22166U   25276.06226381  .00000129  00000+0  28173-3 0  9993
2 54660  87.9180 295.3077 0001900  94.4911 265.6440 13.21826323137590
ONEWEB-0595             
1 54661U 22166V   25276.04017958  .00000067  00000+0  13019-3 0  9994
2 54661  87.9180 295.2868 0002023  93.3705 266.7660 13.21825081137567
ONEWEB-0596             
1 54662U 22166W   25276.31616228  .00000138  00000+0  30315-3 0  9997
2 54662  87.9181 295.2476 0001997  91.6365 268.4997 13.21825589137606
ONEWEB-0597             
1 54663U 22166X   25276.07014978  .00000049  00000+0  86392-4 0  9993
2 54663  87.9178 295.3007 0001864  87.9984 272.1364 13.21824802137575
ONEWEB-0600             
1 54664U 22166Y   25276.05280133  .00000137  00000+0  30009-3 0  9991
2 54664  87.9177 295.2961 0001780  89.1674 270.9664 13.21825576137545
ONEWEB-0601             
1 54665U 22166Z   25276.04490359  .00000036  00000+0  55174-4 0  9993
2 54665  87.9179 295.3150 0001932  82.7511 277.3843 13.21824220137733
ONEWEB-0602             
1 54666U 22166AA  25276.31217618  .00005607  00000+0  13529-1 0  9993
2 54666  87.9183 295.2644 0001464  87.0511 273.0790 13.21868684137617
ONEWEB-0603             
1 54667U 22166AB  25276.31772917  .00000167  00000+0  37260-3 0  9998
2 54667  87.9186 295.1976 0001865  88.6514 271.4834 13.21826859137544
ONEWEB-0604             
1 54668U 22166AC  25276.30512020  .00000135  00000+0  29643-3 0  9996
2 54668  87.9181 295.2247 0001785  87.2954 272.8384 13.21825955137503
ONEWEB-0605             
1 54669U 22166AD  25276.07170084 -.00000215  00000+0 -55181-3 0  9998
2 54669  87.9177 295.3010 0002243  76.6583 283.4801 13.21825766137544
ONEWEB-0606             
1 54670U 22166AE  25276.32089074  .00000132  00000+0  28736-3 0  9998
2 54670  87.9180 295.2618 0002004  97.3876 262.7486 13.21826709137630
ONEWEB-0607             
1 54671U 22166AF  25276.06067682  .00000120  00000+0  25862-3 0  9995
2 54671  87.9178 295.2777 0001863  87.8872 272.2476 13.21826814137571
ONEWEB-0608             
1 54672U 22166AG  25276.29407460  .00000107  00000+0  22635-3 0  9993
2 54672  87.9178 295.2143 0001946  76.1713 283.9637 13.21826200137618
ONEWEB-0610             
1 54673U 22166AH  25276.04806523  .00000021  00000+0  19631-4 0  9998
2 54673  87.9180 295.3014 0001983  73.7515 286.3837 13.21826281137487
ONEWEB-0611             
1 54674U 22166AJ  25276.04175102  .00000057  00000+0  10590-3 0  9994
2 54674  87.9180 295.2985 0001906  98.7879 261.3470 13.21824492137476
ONEWEB-0612             
1 54675U 22166AK  25276.05438025  .00000053  00000+0  97684-4 0  9998
2 54675  87.9179 295.2739 0001901  87.0300 273.1051 13.21825883137467
